[{"OBJECT_NAME":"AETHER-3","OBJECT_ID":"2026-004M","EPOCH":"2026-03-09T23:26:44.657664","MEAN_MOTION":14.88016914,"ECCENTRICITY":0.00060353,"INCLINATION":97.7999,"RA_OF_ASC_NODE":69.1839,"ARG_OF_PERICENTER":95.6226,"MEAN_ANOMALY":264.5679,"EPHEMERIS_TYPE":0,"CLASSIFICATION_TYPE":"U","NORAD_CAT_ID":67374,"ELEMENT_SET_NO":999,"REV_AT_EPOCH":854,"BSTAR":0.00028717597,"MEAN_MOTION_DOT":2.583e-5,"MEAN_MOTION_DDOT":0},{"OBJECT_NAME":"COSMOS 2251 DEB","OBJECT_ID":"1993-036BUC","EPOCH":"2026-03-09T01:22:56.754912","MEAN_MOTION":14.94925122,"ECCENTRICITY":0.00400506,"INCLINATION":73.998,"RA_OF_ASC_NODE":322.714,"ARG_OF_PERICENTER":103.344,"MEAN_ANOMALY":257.2214,"EPHEMERIS_TYPE":0,"CLASSIFICATION_TYPE":"U","NORAD_CAT_ID":39546,"ELEMENT_SET_NO":999,"REV_AT_EPOCH":65725,"BSTAR":0.0016507429,"MEAN_MOTION_DOT":0.00018318,"MEAN_MOTION_DDOT":0}]
